PROGRESS-MS 32          
1 65586U 25204A   25343.18736383  .00013707  00000+0  25261-3 0  9995
2 65586  51.6308 160.0685 0003366 223.6321 136.4401 15.49438460   270
CYGNUS NG-23            
1 65616U 25208A   25343.18736383  .00013707  00000+0  25261-3 0  9993
2 65616  51.6308 160.0685 0003366 223.6321 136.4401 15.49438460   229
DRAGONFLY               
1 65729U 98067XH  25342.73110563  .00167478  00000+0  13272-2 0  9990
2 65729  51.6249 156.2650 0006524 251.4950 108.5339 15.70229086 12536
1998-067XK              
1 65731U 98067XK  25342.71190979  .00100336  00000+0  10051-2 0  9992
2 65731  51.6280 157.6517 0005404 220.4904 139.5689 15.64723492 12515
RSP-03                  
1 65732U 98067XL  25342.78755584  .00139916  00000+0  12545-2 0  9995
2 65732  51.6260 156.6485 0006170 224.9015 135.1483 15.67324417 12544
GHS-01                  
1 65733U 98067XM  25343.00731221  .00212660  00000+0  15001-2 0  9992
2 65733  51.6283 154.3653 0006877 253.5848 106.4394 15.72845555 12592
YOTSUBA-KULOVER         
1 65941U 98067XN  25342.67449860  .00072881  00000+0  92612-3 0  9993
2 65941  51.6278 160.3988 0001691 209.1564 150.9334 15.58725095  9220
BOTAN                   
1 65942U 98067XP  25342.75246625  .00105605  00000+0  11867-2 0  9990
2 65942  51.6289 159.4206 0003646 205.1392 154.9425 15.61774772  9249
E-KAGAKU-1              
1 65943U 98067XQ  25342.73860951  .00067115  00000+0  85625-3 0  9990
2 65943  51.6297 160.0822 0002977 178.8942 181.2057 15.58651727  9237
HRC MONOBLOCK CAMERA    
1 66052U 98067XR  25343.11412251  .00042294  00000+0  65126-3 0  9996
2 66052  51.6287 159.5802 0003848 169.4423 190.6649 15.53759866  8279
HTV-X1                  
1 66174U 25241A   25343.18736383  .00013707  00000+0  25261-3 0  9990
2 66174  51.6308 160.0685 0003366 223.6321 136.4401 15.49438460   511
SZ-21 MODULE            
1 66515U 25246C   25343.21524115  .00032371  00000+0  35922-3 0  9999
2 66515  41.4773  37.5424 0006282 241.0117 119.0093 15.62223553  3897
